SENTINEL-6              
1 46984U 20086A   24183.51955468 -.00000022  00000+0  16831-3 0  9994
2 46984  66.0388 181.5015 0007960 270.2035  89.8068 12.80929576168661
